0 COSMOS 568
1 06679U 73037E   13282.44944028 -.00000035  00000-0 -10448-3 0   664
2 06679 074.0220 028.4815 0068179 296.8991 190.5788 12.58878070853851
0 COSMOS 568
1 06679U 73037E   13287.12489296  .00000004  00000-0  12122-3 0   682
2 06679 074.0224 022.1610 0068223 289.8272 139.4795 12.58877777854442
0 COSMOS 568
1 06679U 73037E   13289.18788390  .00000017  00000-0  19466-3 0   690
2 06679 074.0222 019.3723 0068249 286.7057 128.8434 12.58877730854708
0 COSMOS 568
1 06679U 73037E   13291.50655086  .00000014  00000-0  17620-3 0   703
2 06679 074.0218 016.2378 0068265 283.1896 196.9246 12.58877902854994
0 COSMOS 568
1 06679U 73037E   13293.73115310 -.00000012  00000-0  27456-4 0   710
2 06679 074.0216 013.2303 0068285 279.8239 198.7015 12.58878154855278
0 COSMOS 568
1 06679U 73037E   13296.17148281 -.00000012  00000-0  25449-4 0   725
2 06679 074.0207 009.9301 0068322 276.1792 098.0996 12.58878087855583
